{
    "links": {
        "self": "http://www.neowsapp.com/rest/v1/neo/3869348?api_key=iIulBulltgU6a56xZRHN4H3l9WmuAYTsLGpBGhQ2"
    },
    "id": "3869348",
    "neo_reference_id": "3869348",
    "name": "(2019 SW6)",
    "designation": "2019 SW6",
    "nasa_jpl_url": "http://ssd.jpl.nasa.gov/sbdb.cgi?sstr=3869348",
    "absolute_magnitude_h": 25.7,
    "estimated_diameter": {
        "kilometers": {
            "estimated_diameter_min": 0.0192555078,
            "estimated_diameter_max": 0.0430566244
        },
        "meters": {
            "estimated_diameter_min": 19.2555078188,
            "estimated_diameter_max": 43.0566244241
        },
        "miles": {
            "estimated_diameter_min": 0.0119648141,
            "estimated_diameter_max": 0.0267541378
        },
        "feet": {
            "estimated_diameter_min": 63.1742402722,
            "estimated_diameter_max": 141.2618956756
        }
    },
    "is_potentially_hazardous_asteroid": false,
    "close_approach_data": [
        {
            "close_approach_date": "2019-09-16",
            "close_approach_date_full": "2019-Sep-16 16:19",
            "epoch_date_close_approach": 1568650740000,
            "relative_velocity": {
                "kilometers_per_second": "8.8529585757",
                "kilometers_per_hour": "31870.6508723842",
                "miles_per_hour": "19803.183037899"
            },
            "miss_distance": {
                "astronomical": "0.0750746759",
                "lunar": "29.2040489251",
                "kilometers": "11231011.605580333",
                "miles": "6978627.0084732754"
            },
            "orbiting_body": "Earth"
        }
    ],
    "orbital_data": {
        "orbit_id": "1",
        "orbit_determination_date": "2019-09-29 16:12:03",
        "first_observation_date": "2019-09-24",
        "last_observation_date": "2019-09-29",
        "data_arc_in_days": 5,
        "observations_used": 12,
        "orbit_uncertainty": "9",
        "minimum_orbit_intersection": ".0689264",
        "jupiter_tisserand_invariant": "3.387",
        "epoch_osculation": "2458753.5",
        "eccentricity": ".5388577215674287",
        "semi_major_axis": "2.279480373342705",
        "inclination": "8.039365150826185",
        "ascending_node_longitude": "5.282502162246082",
        "orbital_period": "1257.049016784523",
        "perihelion_distance": "1.051164773005583",
        "perihelion_argument": "329.653667516742",
        "aphelion_distance": "3.507795973679826",
        "perihelion_time": "2458728.280618017990",
        "mean_anomaly": "7.222453056561974",
        "mean_motion": ".2863850137847961",
        "equinox": "J2000",
        "orbit_class": {
            "orbit_class_type": "AMO",
            "orbit_class_description": "Near-Earth asteroid orbits similar to that of 1221 Amor",
            "orbit_class_range": "1.017 AU < q (perihelion) < 1.3 AU"
        }
    },
    "is_sentry_object": false
}